CCSDS_OMM_VERS = 2.0
CREATION_DATE  = 
ORIGINATOR     = 

OBJECT_NAME    = IDEFIX & ARIANE 42P R/B
OBJECT_ID      = 2002-021B
CENTER_NAME    = EARTH
REF_FRAME      = TEME
TIME_SYSTEM    = UTC
MEAN_ELEMENT_THEORY = SGP/SGP4

EPOCH          = 2025-12-24T01:12:58.278528
MEAN_MOTION    = 14.30958053
ECCENTRICITY   = .00127867
INCLINATION    = 98.5802
RA_OF_ASC_NODE = 292.5955
ARG_OF_PERICENTER = 53.1431
MEAN_ANOMALY   = 307.0922

EPHEMERIS_TYPE = 0
CLASSIFICATION_TYPE = U
NORAD_CAT_ID   = 27422
ELEMENT_SET_NO = 999
REV_AT_EPOCH   = 23320
BSTAR          = .12897829E-3
MEAN_MOTION_DOT = .296E-5
MEAN_MOTION_DDOT = 0

CCSDS_OMM_VERS = 2.0
CREATION_DATE  = 
ORIGINATOR     = 

OBJECT_NAME    = AQUA
OBJECT_ID      = 2002-022A
CENTER_NAME    = EARTH
REF_FRAME      = TEME
TIME_SYSTEM    = UTC
MEAN_ELEMENT_THEORY = SGP/SGP4

EPOCH          = 2025-12-23T20:08:03.450912
MEAN_MOTION    = 14.61824731
ECCENTRICITY   = .00015094
INCLINATION    = 98.4053
RA_OF_ASC_NODE = 318.8992
ARG_OF_PERICENTER = 108.9448
MEAN_ANOMALY   = 272.2576

EPHEMERIS_TYPE = 0
CLASSIFICATION_TYPE = U
NORAD_CAT_ID   = 27424
ELEMENT_SET_NO = 999
REV_AT_EPOCH   = 25765
BSTAR          = .20597954E-3
MEAN_MOTION_DOT = .98E-5
MEAN_MOTION_DDOT = 0

CCSDS_OMM_VERS = 2.0
CREATION_DATE  = 
ORIGINATOR     = 

OBJECT_NAME    = CZ-4B R/B
OBJECT_ID      = 2002-024C
CENTER_NAME    = EARTH
REF_FRAME      = TEME
TIME_SYSTEM    = UTC
MEAN_ELEMENT_THEORY = SGP/SGP4

EPOCH          = 2025-12-24T04:14:20.760288
MEAN_MOTION    = 14.14530287
ECCENTRICITY   = .00493378
INCLINATION    = 98.8982
RA_OF_ASC_NODE = 46.9077
ARG_OF_PERICENTER = 236.7878
MEAN_ANOMALY   = 191.2469

EPHEMERIS_TYPE = 0
CLASSIFICATION_TYPE = U
NORAD_CAT_ID   = 27432
ELEMENT_SET_NO = 999
REV_AT_EPOCH   = 21856
BSTAR          = .52357377E-4
MEAN_MOTION_DOT = .57E-6
MEAN_MOTION_DDOT = 0

CCSDS_OMM_VERS = 2.0
CREATION_DATE  = 
ORIGINATOR     = 

OBJECT_NAME    = MIDORI II (ADEOS-II)
OBJECT_ID      = 2002-056A
CENTER_NAME    = EARTH
REF_FRAME      = TEME
TIME_SYSTEM    = UTC
MEAN_ELEMENT_THEORY = SGP/SGP4

EPOCH          = 2025-12-24T06:24:12.278592
MEAN_MOTION    = 14.29213018
ECCENTRICITY   = .00007827
INCLINATION    = 98.7655
RA_OF_ASC_NODE = 311.2845
ARG_OF_PERICENTER = 147.7250
MEAN_ANOMALY   = 212.3979

EPHEMERIS_TYPE = 0
CLASSIFICATION_TYPE = U
NORAD_CAT_ID   = 27597
ELEMENT_SET_NO = 999
REV_AT_EPOCH   = 19952
BSTAR          = .12566961E-3
MEAN_MOTION_DOT = .274E-5
MEAN_MOTION_DDOT = 0

CCSDS_OMM_VERS = 2.0
CREATION_DATE  = 
ORIGINATOR     = 

OBJECT_NAME    = H-2A R/B
OBJECT_ID      = 2002-056E
CENTER_NAME    = EARTH
REF_FRAME      = TEME
TIME_SYSTEM    = UTC
MEAN_ELEMENT_THEORY = SGP/SGP4

EPOCH          = 2025-12-23T22:01:57.630432
MEAN_MOTION    = 14.33685456
ECCENTRICITY   = .0070957
INCLINATION    = 98.3082
RA_OF_ASC_NODE = 316.2305
ARG_OF_PERICENTER = 28.2593
MEAN_ANOMALY   = 38.2477

EPHEMERIS_TYPE = 0
CLASSIFICATION_TYPE = U
NORAD_CAT_ID   = 27601
ELEMENT_SET_NO = 999
REV_AT_EPOCH   = 20325
BSTAR          = .1483E-3
MEAN_MOTION_DOT = .382E-5
MEAN_MOTION_DDOT = 0

CCSDS_OMM_VERS = 2.0
CREATION_DATE  = 
ORIGINATOR     = 

OBJECT_NAME    = CZ-4B R/B
OBJECT_ID      = 2003-049C
CENTER_NAME    = EARTH
REF_FRAME      = TEME
TIME_SYSTEM    = UTC
MEAN_ELEMENT_THEORY = SGP/SGP4

EPOCH          = 2025-12-24T05:14:14.881056
MEAN_MOTION    = 14.54919913
ECCENTRICITY   = .00493706
INCLINATION    = 98.6797
RA_OF_ASC_NODE = 345.2161
ARG_OF_PERICENTER = 101.7290
MEAN_ANOMALY   = 258.9451

EPHEMERIS_TYPE = 0
CLASSIFICATION_TYPE = U
NORAD_CAT_ID   = 28059
ELEMENT_SET_NO = 999
REV_AT_EPOCH   = 17562
BSTAR          = .10608856E-3
MEAN_MOTION_DOT = .412E-5
MEAN_MOTION_DDOT = 0

CCSDS_OMM_VERS = 2.0
CREATION_DATE  = 
ORIGINATOR     = 

OBJECT_NAME    = CZ-2C R/B
OBJECT_ID      = 2004-012C
CENTER_NAME    = EARTH
REF_FRAME      = TEME
TIME_SYSTEM    = UTC
MEAN_ELEMENT_THEORY = SGP/SGP4

EPOCH          = 2025-12-24T02:56:45.929184
MEAN_MOTION    = 15.56339592
ECCENTRICITY   = .00165754
INCLINATION    = 97.7396
RA_OF_ASC_NODE = 51.6900
ARG_OF_PERICENTER = 225.6804
MEAN_ANOMALY   = 134.3092

EPHEMERIS_TYPE = 0
CLASSIFICATION_TYPE = U
NORAD_CAT_ID   = 28222
ELEMENT_SET_NO = 999
REV_AT_EPOCH   = 19249
BSTAR          = .56454175E-3
MEAN_MOTION_DOT = .40026E-3
MEAN_MOTION_DDOT = 0

CCSDS_OMM_VERS = 2.0
CREATION_DATE  = 
ORIGINATOR     = 

OBJECT_NAME    = SL-16 R/B
OBJECT_ID      = 2004-021B
CENTER_NAME    = EARTH
REF_FRAME      = TEME
TIME_SYSTEM    = UTC
MEAN_ELEMENT_THEORY = SGP/SGP4

EPOCH          = 2025-12-24T03:32:51.953856
MEAN_MOTION    = 14.14579347
ECCENTRICITY   = .0004669
INCLINATION    = 71.0004
RA_OF_ASC_NODE = 31.0250
ARG_OF_PERICENTER = 180.9284
MEAN_ANOMALY   = 179.1831

EPHEMERIS_TYPE = 0
CLASSIFICATION_TYPE = U
NORAD_CAT_ID   = 28353
ELEMENT_SET_NO = 999
REV_AT_EPOCH   = 11215
BSTAR          = .7734905E-4
MEAN_MOTION_DOT = .101E-5
MEAN_MOTION_DDOT = 0

CCSDS_OMM_VERS = 2.0
CREATION_DATE  = 
ORIGINATOR     = 

OBJECT_NAME    = CZ-4B R/B
OBJECT_ID      = 2004-035C
CENTER_NAME    = EARTH
REF_FRAME      = TEME
TIME_SYSTEM    = UTC
MEAN_ELEMENT_THEORY = SGP/SGP4

EPOCH          = 2025-12-24T02:11:20.824800
MEAN_MOTION    = 15.27548837
ECCENTRICITY   = .00316906
INCLINATION    = 97.3590
RA_OF_ASC_NODE = 28.2838
ARG_OF_PERICENTER = 235.1736
MEAN_ANOMALY   = 124.6522

EPHEMERIS_TYPE = 0
CLASSIFICATION_TYPE = U
NORAD_CAT_ID   = 28415
ELEMENT_SET_NO = 999
REV_AT_EPOCH   = 16836
BSTAR          = .32172454E-3
MEAN_MOTION_DOT = .8723E-4
MEAN_MOTION_DDOT = 0

CCSDS_OMM_VERS = 2.0
CREATION_DATE  = 
ORIGINATOR     = 

OBJECT_NAME    = CZ-2C R/B
OBJECT_ID      = 2004-046B
CENTER_NAME    = EARTH
REF_FRAME      = TEME
TIME_SYSTEM    = UTC
MEAN_ELEMENT_THEORY = SGP/SGP4

EPOCH          = 2025-12-24T04:16:23.145024
MEAN_MOTION    = 14.26947220
ECCENTRICITY   = .01399508
INCLINATION    = 98.1998
RA_OF_ASC_NODE = 272.8454
ARG_OF_PERICENTER = 18.6701
MEAN_ANOMALY   = 341.9542

EPHEMERIS_TYPE = 0
CLASSIFICATION_TYPE = U
NORAD_CAT_ID   = 28480
ELEMENT_SET_NO = 999
REV_AT_EPOCH   = 9773
BSTAR          = .11651519E-3
MEAN_MOTION_DOT = .273E-5
MEAN_MOTION_DDOT = 0

CCSDS_OMM_VERS = 2.0
CREATION_DATE  = 
ORIGINATOR     = 

OBJECT_NAME    = ARIANE 5 R/B
OBJECT_ID      = 2004-049H
CENTER_NAME    = EARTH
REF_FRAME      = TEME
TIME_SYSTEM    = UTC
MEAN_ELEMENT_THEORY = SGP/SGP4

EPOCH          = 2025-12-24T07:25:22.300896
MEAN_MOTION    = 14.85040397
ECCENTRICITY   = .0083468
INCLINATION    = 98.2529
RA_OF_ASC_NODE = 159.0059
ARG_OF_PERICENTER = 234.9329
MEAN_ANOMALY   = 124.4037

EPHEMERIS_TYPE = 0
CLASSIFICATION_TYPE = U
NORAD_CAT_ID   = 28499
ELEMENT_SET_NO = 999
REV_AT_EPOCH   = 13460
BSTAR          = .14477664E-3
MEAN_MOTION_DOT = .125E-4
MEAN_MOTION_DDOT = 0

CCSDS_OMM_VERS = 2.0
CREATION_DATE  = 
ORIGINATOR     = 

OBJECT_NAME    = CZ-2D R/B
OBJECT_ID      = 2005-024B
CENTER_NAME    = EARTH
REF_FRAME      = TEME
TIME_SYSTEM    = UTC
MEAN_ELEMENT_THEORY = SGP/SGP4

EPOCH          = 2025-12-23T22:18:55.961568
MEAN_MOTION    = 15.53814145
ECCENTRICITY   = .0003719
INCLINATION    = 97.3630
RA_OF_ASC_NODE = 5.6749
ARG_OF_PERICENTER = 321.6418
MEAN_ANOMALY   = 38.4570

EPHEMERIS_TYPE = 0
CLASSIFICATION_TYPE = U
NORAD_CAT_ID   = 28738
ELEMENT_SET_NO = 999
REV_AT_EPOCH   = 12799
BSTAR          = .48748E-3
MEAN_MOTION_DOT = .31286E-3
MEAN_MOTION_DDOT = 0

