IDEFIX & ARIANE 42P R/B 
1 27422U 02021B   25358.05067452  .00000296  00000+0  12898-3 0  9991
2 27422  98.5802 292.5955 0012786  53.1431 307.0922 14.30958053233200
AQUA                    
1 27424U 02022A   25357.83892883  .00000980  00000+0  20598-3 0  9999
2 27424  98.4053 318.8992 0001509 108.9448 272.2576 14.61824731257652
CZ-4B R/B               
1 27432U 02024C   25358.17662917  .00000057  00000+0  52357-4 0  9995
2 27432  98.8982  46.9077 0049337 236.7878 191.2469 14.14530287218563
MIDORI II (ADEOS-II)    
1 27597U 02056A   25358.26680878  .00000274  00000+0  12567-3 0  9997
2 27597  98.7655 311.2845 0000782 147.7250 212.3979 14.29213018199529
H-2A R/B                
1 27601U 02056E   25357.91802813  .00000382  00000+0  14830-3 0  9994
2 27601  98.3082 316.2305 0070957  28.2593  38.2477 14.33685456203253
CZ-4B R/B               
1 28059U 03049C   25358.21822779  .00000412  00000+0  10609-3 0  9996
2 28059  98.6797 345.2161 0049370 101.7290 258.9451 14.54919913175628
CZ-2C R/B               
1 28222U 04012C   25358.12275381  .00040026  00000+0  56454-3 0  9993
2 28222  97.7396  51.6900 0016575 225.6804 134.3092 15.56339592192496
SL-16 R/B               
1 28353U 04021B   25358.14782354  .00000101  00000+0  77349-4 0  9990
2 28353  71.0004  31.0250 0004669 180.9284 179.1831 14.14579347112158
CZ-4B R/B               
1 28415U 04035C   25358.09121325  .00008723  00000+0  32172-3 0  9995
2 28415  97.3590  28.2838 0031690 235.1736 124.6522 15.27548837168368
CZ-2C R/B               
1 28480U 04046B   25358.17804566  .00000273  00000+0  11652-3 0  9995
2 28480  98.1998 272.8454 0139950  18.6701 341.9542 14.26947220 97731
ARIANE 5 R/B            
1 28499U 04049H   25358.30928589  .00001250  00000+0  14478-3 0  9990
2 28499  98.2529 159.0059 0083468 234.9329 124.4037 14.85040397134605
CZ-2D R/B               
1 28738U 05024B   25357.92981437  .00031286  00000+0  48748-3 0  9997
2 28738  97.3630   5.6749 0003719 321.6418  38.4570 15.53814145127996
